IXPE                    
1 49954U 21121A   24261.91667824  .00013192  00000+0  96486-3 0  9997
2 49954   0.2306  64.0358 0009064 217.8955 102.1025 14.99966138151831
